{
  "type": "FeatureCollection",
  "features": [
    {
      "type": "Feature",
      "properties": {
        "norad_id": 33822,
        "name": "COSMOS 2251 DEB",
        "group": "cosmos-2251-debris",
        "lat": -56.0454655644054,
        "lon": 45.84419973676354,
        "alt_km": 745.7572231661097,
        "timestamp": "2025-12-08T17:43:05.330332+00:00",
        "meta_object_name": "COSMOS 2251 DEB",
        "meta_object_id": "1993-036BP",
        "meta_epoch": "2025-12-08T01:52:47.203104",
        "meta_mean_motion": 14.13036225,
        "meta_eccentricity": 0.0153709,
        "meta_inclination": 74.0693,
        "meta_ra_of_asc_node": 201.9105,
        "meta_arg_of_pericenter": 249.3355,
        "meta_mean_anomaly": 234.7647,
        "meta_ephemeris_type": 0,
        "meta_classification_type": "U",
        "meta_norad_cat_id": 33822,
        "meta_element_set_no": 999,
        "meta_rev_at_epoch": 85988,
        "meta_bstar": 0.0016546481,
        "meta_mean_motion_dot": 3.43e-05,
        "meta_mean_motion_ddot": 0,
        "tle_line1": "1 33822U 93036BP  25342.07832411  .00003430  00000+0  16546-2 0  9994",
        "tle_line2": "2 33822  74.0693 201.9105 0153709 249.3355 234.7647 14.13036225859881"
      },
      "geometry": {
        "type": "Point",
        "coordinates": [
          45.84419973676354,
          -56.0454655644054
        ]
      }
    },
    {
      "type": "Feature",
      "properties": {
        "norad_id": 33823,
        "name": "COSMOS 2251 DEB",
        "group": "cosmos-2251-debris",
        "lat": -72.80415144659104,
        "lon": 46.1943877609196,
        "alt_km": 759.3107895604289,
        "timestamp": "2025-12-08T17:43:05.330343+00:00",
        "meta_object_name": "COSMOS 2251 DEB",
        "meta_object_id": "1993-036BQ",
        "meta_epoch": "2025-12-08T04:59:22.157376",
        "meta_mean_motion": 13.98933817,
        "meta_eccentricity": 0.02092619,
        "meta_inclination": 73.8093,
        "meta_ra_of_asc_node": 157.2727,
        "meta_arg_of_pericenter": 283.1609,
        "meta_mean_anomaly": 191.747,
        "meta_ephemeris_type": 0,
        "meta_classification_type": "U",
        "meta_norad_cat_id": 33823,
        "meta_element_set_no": 999,
        "meta_rev_at_epoch": 85546,
        "meta_bstar": 0.0012631795,
        "meta_mean_motion_dot": 2.173e-05,
        "meta_mean_motion_ddot": 0,
        "tle_line1": "1 33823U 93036BQ  25342.20789534  .00002173  00000+0  12632-2 0  9992",
        "tle_line2": "2 33823  73.8093 157.2727 0209261 283.1609 191.7470 13.98933817855460"
      },
      "geometry": {
        "type": "Point",
        "coordinates": [
          46.1943877609196,
          -72.80415144659104
        ]
      }
    },
    {
      "type": "Feature",
      "properties": {
        "norad_id": 33825,
        "name": "COSMOS 2251 DEB",
        "group": "cosmos-2251-debris",
        "lat": -21.20044624079221,
        "lon": 29.175715997447984,
        "alt_km": 613.3025272566092,
        "timestamp": "2025-12-08T17:43:05.330354+00:00",
        "meta_object_name": "COSMOS 2251 DEB",
        "meta_object_id": "1993-036BS",
        "meta_epoch": "2025-12-08T06:40:49.859040",
        "meta_mean_motion": 14.69703776,
        "meta_eccentricity": 0.00843278,
        "meta_inclination": 73.9851,
        "meta_ra_of_asc_node": 36.4659,
        "meta_arg_of_pericenter": 4.6142,
        "meta_mean_anomaly": 61.5059,
        "meta_ephemeris_type": 0,
        "meta_classification_type": "U",
        "meta_norad_cat_id": 33825,
        "meta_element_set_no": 999,
        "meta_rev_at_epoch": 88814,
        "meta_bstar": 0.00096950127,
        "meta_mean_motion_dot": 6.071e-05,
        "meta_mean_motion_ddot": 0,
        "tle_line1": "1 33825U 93036BS  25342.27835485  .00006071  00000+0  96950-3 0  9995",
        "tle_line2": "2 33825  73.9851  36.4659 0084327   4.6142  61.5059 14.69703776888145"
      },
      "geometry": {
        "type": "Point",
        "coordinates": [
          29.175715997447984,
          -21.20044624079221
        ]
      }
    },
    {
      "type": "Feature",
      "properties": {
        "norad_id": 33826,
        "name": "COSMOS 2251 DEB",
        "group": "cosmos-2251-debris",
        "lat": 48.8466558659689,
        "lon": -141.68146686648845,
        "alt_km": 661.6428463545735,
        "timestamp": "2025-12-08T17:43:05.330366+00:00",
        "meta_object_name": "COSMOS 2251 DEB",
        "meta_object_id": "1993-036BT",
        "meta_epoch": "2025-12-08T07:29:50.656704",
        "meta_mean_motion": 14.5165981,
        "meta_eccentricity": 0.00837191,
        "meta_inclination": 74.0649,
        "meta_ra_of_asc_node": 58.1993,
        "meta_arg_of_pericenter": 103.9796,
        "meta_mean_anomaly": 319.3518,
        "meta_ephemeris_type": 0,
        "meta_classification_type": "U",
        "meta_norad_cat_id": 33826,
        "meta_element_set_no": 999,
        "meta_rev_at_epoch": 87705,
        "meta_bstar": 0.0015984123,
        "meta_mean_motion_dot": 6.688e-05,
        "meta_mean_motion_ddot": 0,
        "tle_line1": "1 33826U 93036BT  25342.31239186  .00006688  00000+0  15984-2 0  9998",
        "tle_line2": "2 33826  74.0649  58.1993 0083719 103.9796 319.3518 14.51659810877059"
      },
      "geometry": {
        "type": "Point",
        "coordinates": [
          -141.68146686648845,
          48.8466558659689
        ]
      }
    },
    {
      "type": "Feature",
      "properties": {
        "norad_id": 33828,
        "name": "COSMOS 2251 DEB",
        "group": "cosmos-2251-debris",
        "lat": 46.77546302709285,
        "lon": 47.812685187647354,
        "alt_km": 760.5424147226895,
        "timestamp": "2025-12-08T17:43:05.330377+00:00",
        "meta_object_name": "COSMOS 2251 DEB",
        "meta_object_id": "1993-036BV",
        "meta_epoch": "2025-12-08T04:33:45.709632",
        "meta_mean_motion": 14.44309433,
        "meta_eccentricity": 0.00294079,
        "meta_inclination": 74.0472,
        "meta_ra_of_asc_node": 246.55,
        "meta_arg_of_pericenter": 320.1627,
        "meta_mean_anomaly": 201.5113,
        "meta_ephemeris_type": 0,
        "meta_classification_type": "U",
        "meta_norad_cat_id": 33828,
        "meta_element_set_no": 999,
        "meta_rev_at_epoch": 88247,
        "meta_bstar": 0.00074124454,
        "meta_mean_motion_dot": 2.537e-05,
        "meta_mean_motion_ddot": 0,
        "tle_line1": "1 33828U 93036BV  25342.19011238  .00002537  00000+0  74124-3 0  9993",
        "tle_line2": "2 33828  74.0472 246.5500 0029407 320.1627 201.5113 14.44309433882472"
      },
      "geometry": {
        "type": "Point",
        "coordinates": [
          47.812685187647354,
          46.77546302709285
        ]
      }
    },
    {
      "type": "Feature",
      "properties": {
        "norad_id": 33830,
        "name": "COSMOS 2251 DEB",
        "group": "cosmos-2251-debris",
        "lat": -69.42642594748506,
        "lon": 107.92458749169813,
        "alt_km": 652.4836474878402,
        "timestamp": "2025-12-08T17:43:05.330390+00:00",
        "meta_object_name": "COSMOS 2251 DEB",
        "meta_object_id": "1993-036BX",
        "meta_epoch": "2025-12-08T04:05:06.821376",
        "meta_mean_motion": 14.76809877,
        "meta_eccentricity": 0.00422651,
        "meta_inclination": 74.0325,
        "meta_ra_of_asc_node": 239.3242,
        "meta_arg_of_pericenter": 0.3637,
        "meta_mean_anomaly": 118.2126,
        "meta_ephemeris_type": 0,
        "meta_classification_type": "U",
        "meta_norad_cat_id": 33830,
        "meta_element_set_no": 999,
        "meta_rev_at_epoch": 89404,
        "meta_bstar": 0.0012253608,
        "meta_mean_motion_dot": 8.703e-05,
        "meta_mean_motion_ddot": 0,
        "tle_line1": "1 33830U 93036BX  25342.17021784  .00008703  00000+0  12254-2 0  9997",
        "tle_line2": "2 33830  74.0325 239.3242 0042265   0.3637 118.2126 14.76809877894046"
      },
      "geometry": {
        "type": "Point",
        "coordinates": [
          107.92458749169813,
          -69.42642594748506
        ]
      }
    },
    {
      "type": "Feature",
      "properties": {
        "norad_id": 33832,
        "name": "COSMOS 2251 DEB",
        "group": "cosmos-2251-debris",
        "lat": -1.2136260933204979,
        "lon": 37.956597304567296,
        "alt_km": 687.515182694644,
        "timestamp": "2025-12-08T17:43:05.330405+00:00",
        "meta_object_name": "COSMOS 2251 DEB",
        "meta_object_id": "1993-036BZ",
        "meta_epoch": "2025-12-08T02:48:05.865984",
        "meta_mean_motion": 14.6055874,
        "meta_eccentricity": 0.00252482,
        "meta_inclination": 74.0537,
        "meta_ra_of_asc_node": 218.7948,
        "meta_arg_of_pericenter": 250.8501,
        "meta_mean_anomaly": 263.9312,
        "meta_ephemeris_type": 0,
        "meta_classification_type": "U",
        "meta_norad_cat_id": 33832,
        "meta_element_set_no": 999,
        "meta_rev_at_epoch": 88357,
        "meta_bstar": 0.0016659264,
        "meta_mean_motion_dot": 8.109e-05,
        "meta_mean_motion_ddot": 0,
        "tle_line1": "1 33832U 93036BZ  25342.11673456  .00008109  00000+0  16659-2 0  9995",
        "tle_line2": "2 33832  74.0537 218.7948 0025248 250.8501 263.9312 14.60558740883575"
      },
      "geometry": {
        "type": "Point",
        "coordinates": [
          37.956597304567296,
          -1.2136260933204979
        ]
      }
    }
  ]
}